[{"OBJECT_NAME":"HJ-2A","OBJECT_ID":"2020-067A","EPOCH":"2026-03-09T22:54:37.031328","MEAN_MOTION":14.76559818,"ECCENTRICITY":0.00025704,"INCLINATION":97.8873,"RA_OF_ASC_NODE":149.6532,"ARG_OF_PERICENTER":194.0861,"MEAN_ANOMALY":166.0278,"EPHEMERIS_TYPE":0,"CLASSIFICATION_TYPE":"U","NORAD_CAT_ID":46478,"ELEMENT_SET_NO":999,"REV_AT_EPOCH":29361,"BSTAR":0.00012804668,"MEAN_MOTION_DOT":8.43e-6,"MEAN_MOTION_DDOT":0},{"OBJECT_NAME":"COSMOS 2251 DEB","OBJECT_ID":"1993-036ARD","EPOCH":"2026-03-06T07:07:03.464832","MEAN_MOTION":14.65225334,"ECCENTRICITY":0.00761326,"INCLINATION":74.0382,"RA_OF_ASC_NODE":55.3171,"ARG_OF_PERICENTER":154.5075,"MEAN_ANOMALY":205.988,"EPHEMERIS_TYPE":0,"CLASSIFICATION_TYPE":"U","NORAD_CAT_ID":35759,"ELEMENT_SET_NO":999,"REV_AT_EPOCH":67359,"BSTAR":0.00030100364,"MEAN_MOTION_DOT":1.659e-5,"MEAN_MOTION_DDOT":0}]
